start=new Date('2022-11-29T00:00:00.000Z').valueOf();
sats=[{"MEAN_MOTION":"15.06394666","ELEMENT_SET_NO":"999","DECAY_DATE":null,"OBJECT_NAME":"STARLINK-2004","COUNTRY_CODE":"US","EPOCH":"2022-11-28T03:11:03.513984","SITE":"AFETR","RA_OF_ASC_NODE":"337.6670","APOAPSIS":"548.489","ECCENTRICITY":"0.00018180","PERIOD":"95.592","TIME_SYSTEM":"UTC","RCS_SIZE":"LARGE","MEAN_MOTION_DDOT":"0.0000000000000","GP_ID":"218998191","CENTER_NAME":"EARTH","ARG_OF_PERICENTER":"73.8467","FILE":"3672079","CLASSIFICATION_TYPE":"U","MEAN_MOTION_DOT":"0.00002681","MEAN_ANOMALY":"286.2722","MEAN_ELEMENT_THEORY":"SGP4","PERIAPSIS":"545.971","REV_AT_EPOCH":"10118","INCLINATION":"53.0553","NORAD_CAT_ID":"47599","TLE_LINE1":"1 47599U 21009BD  22332.13267956  .00002681  00000-0  19883-3 0  9996","SEMIMAJOR_AXIS":"6925.365","BSTAR":"0.00019883000000","OBJECT_ID":"2021-009BD","OBJECT_TYPE":"PAYLOAD","LAUNCH_DATE":"2021-02-04","EPHEMERIS_TYPE":"0","REF_FRAME":"TEME","TLE_LINE2":"2 47599  53.0553 337.6670 0001818  73.8467 286.2722 15.06394666101188"},{"MEAN_MOTION":"15.06406409","ELEMENT_SET_NO":"999","DECAY_DATE":null,"OBJECT_NAME":"STARLINK-2005","COUNTRY_CODE":"US","EPOCH":"2022-11-28T10:10:20.766144","SITE":"AFETR","RA_OF_ASC_NODE":"336.3221","APOAPSIS":"548.381","ECCENTRICITY":"0.00017140","PERIOD":"95.592","TIME_SYSTEM":"UTC","RCS_SIZE":"LARGE","MEAN_MOTION_DDOT":"0.0000000000000","GP_ID":"219003953","CENTER_NAME":"EARTH","ARG_OF_PERICENTER":"57.8563","FILE":"3672371","CLASSIFICATION_TYPE":"U","MEAN_MOTION_DOT":"0.00000284","MEAN_ELEMENT_THEORY":"SGP4","MEAN_ANOMALY":"302.2592","INCLINATION":"53.0563","PERIAPSIS":"546.007","REV_AT_EPOCH":"10123","NORAD_CAT_ID":"47600","TLE_LINE1":"1 47600U 21009BE  22332.42385146  .00000284  00000-0  37941-4 0  9996","SEMIMAJOR_AXIS":"6925.329","BSTAR":"0.00003794100000","OBJECT_ID":"2021-009BE","OBJECT_TYPE":"PAYLOAD","LAUNCH_DATE":"2021-02-04","EPHEMERIS_TYPE":"0","TLE_LINE2":"2 47600  53.0563 336.3221 0001714  57.8563 302.2592 15.06406409101233","REF_FRAME":"TEME"},{"OBJECT_NAME":"STARLINK-2006","COUNTRY_CODE":"US","ELEMENT_SET_NO":"999","MEAN_MOTION":"15.06408096","DECAY_DATE":null,"CENTER_NAME":"EARTH","MEAN_MOTION_DDOT":"0.0000000000000","GP_ID":"219008769","ECCENTRICITY":"0.00020550","APOAPSIS":"548.612","RA_OF_ASC_NODE":"334.9672","SITE":"AFETR","EPOCH":"2022-11-28T17:36:12.725568","RCS_SIZE":"LARGE","PERIOD":"95.592","TIME_SYSTEM":"UTC","CLASSIFICATION_TYPE":"U","FILE":"3672617","ARG_OF_PERICENTER":"57.5948","MEAN_ANOMALY":"302.5240","MEAN_ELEMENT_THEORY":"SGP4","MEAN_MOTION_DOT":"0.00000305","EPHEMERIS_TYPE":"0","LAUNCH_DATE":"2021-02-04","OBJECT_TYPE":"PAYLOAD","REF_FRAME":"TEME","TLE_LINE2":"2 47601  53.0549 334.9672 0002055  57.5948 302.5240 15.06408096101276","TLE_LINE1":"1 47601U 21009BF  22332.73348062  .00000305  00000-0  39386-4 0  9996","NORAD_CAT_ID":"47601","PERIAPSIS":"545.766","REV_AT_EPOCH":"10127","INCLINATION":"53.0549","OBJECT_ID":"2021-009BF","BSTAR":"0.00003938600000","SEMIMAJOR_AXIS":"6925.324"},{"EPHEMERIS_TYPE":"0","LAUNCH_DATE":"2021-02-04","OBJECT_TYPE":"PAYLOAD","REF_FRAME":"TEME","TLE_LINE2":"2 47602  53.0549 346.3725 0001502  43.9073 316.2035 15.06398897101076","TLE_LINE1":"1 47602U 21009BG  22332.42293772 -.00000594  00000-0 -21016-4 0  9993","NORAD_CAT_ID":"47602","REV_AT_EPOCH":"10107","PERIAPSIS":"546.177","INCLINATION":"53.0549","OBJECT_ID":"2021-009BG","BSTAR":"-0.00002101600000","SEMIMAJOR_AXIS":"6925.352","CLASSIFICATION_TYPE":"U","FILE":"3672371","ARG_OF_PERICENTER":"43.9073","MEAN_ANOMALY":"316.2035","MEAN_ELEMENT_THEORY":"SGP4","MEAN_MOTION_DOT":"-0.00000594","CENTER_NAME":"EARTH","MEAN_MOTION_DDOT":"0.0000000000000","GP_ID":"219003686","ECCENTRICITY":"0.00015020","RA_OF_ASC_NODE":"346.3725","APOAPSIS":"548.257","SITE":"AFETR","EPOCH":"2022-11-28T10:09:01.819008","RCS_SIZE":"LARGE","TIME_SYSTEM":"UTC","PERIOD":"95.592","OBJECT_NAME":"STARLINK-2007","COUNTRY_CODE":"US","ELEMENT_SET_NO":"999","MEAN_MOTION":"15.06398897","DECAY_DATE":null},{"MEAN_ELEMENT_THEORY":"SGP4","MEAN_ANOMALY":"301.0862","MEAN_MOTION_DOT":"0.00000134","FILE":"3671921","ARG_OF_PERICENTER":"59.0282","CLASSIFICATION_TYPE":"U","TLE_LINE2":"2 47603  53.0560  20.1832 0001573  59.0282 301.0862 15.06393588 99926","REF_FRAME":"TEME","OBJECT_TYPE":"PAYLOAD","EPHEMERIS_TYPE":"0","LAUNCH_DATE":"2021-02-04","SEMIMAJOR_AXIS":"6925.368","OBJECT_ID":"2021-009BH","BSTAR":"0.00002789300000","INCLINATION":"53.0560","PERIAPSIS":"546.144","REV_AT_EPOCH":"9992","TLE_LINE1":"1 47603U 21009BH  22331.57240677  .00000134  00000-0  27893-4 0  9992","NORAD_CAT_ID":"47603","COUNTRY_CODE":"US","OBJECT_NAME":"STARLINK-2008","DECAY_DATE":null,"ELEMENT_SET_NO":"999","MEAN_MOTION":"15.06393588","GP_ID":"218989843","MEAN_MOTION_DDOT":"0.0000000000000","CENTER_NAME":"EARTH","PERIOD":"95.593","TIME_SYSTEM":"UTC","RCS_SIZE":"LARGE","SITE":"AFETR","EPOCH":"2022-11-27T13:44:15.944928","ECCENTRICITY":"0.00015730","RA_OF_ASC_NODE":"20.1832","APOAPSIS":"548.323"},{"MEAN_MOTION":"15.06392175","ELEMENT_SET_NO":"999","DECAY_DATE":null,"OBJECT_NAME":"STARLINK-2021","COUNTRY_CODE":"US","EPOCH":"2022-11-28T18:17:20.737248","SITE":"AFETR","APOAPSIS":"548.434","RA_OF_ASC_NODE":"344.8454","ECCENTRICITY":"0.00017280","TIME_SYSTEM":"UTC","PERIOD":"95.593","RCS_SIZE":"LARGE","MEAN_MOTION_DDOT":"0.0000000000000","GP_ID":"219008963","CENTER_NAME":"EARTH","ARG_OF_PERICENTER":"47.3281","FILE":"3672618","CLASSIFICATION_TYPE":"U","MEAN_MOTION_DOT":"-0.00001826","MEAN_ANOMALY":"312.7853","MEAN_ELEMENT_THEORY":"SGP4","INCLINATION":"53.0549","PERIAPSIS":"546.041","REV_AT_EPOCH":"10113","NORAD_CAT_ID":"47604","TLE_LINE1":"1 47604U 21009BJ  22332.76204557 -.00001826  00000-0 -10376-3 0  9990","SEMIMAJOR_AXIS":"6925.373","BSTAR":"-0.00010376000000","OBJECT_ID":"2021-009BJ","OBJECT_TYPE":"PAYLOAD","LAUNCH_DATE":"2021-02-04","EPHEMERIS_TYPE":"0","TLE_LINE2":"2 47604  53.0549 344.8454 0001728  47.3281 312.7853 15.06392175101138","REF_FRAME":"TEME"},{"SEMIMAJOR_AXIS":"6925.363","OBJECT_ID":"2021-009BL","BSTAR":"0.00003271000000","PERIAPSIS":"546.041","INCLINATION":"53.0547","REV_AT_EPOCH":"10104","TLE_LINE1":"1 47606U 21009BL  22332.16861003  .00000206  00000-0  32710-4 0  9997","NORAD_CAT_ID":"47606","TLE_LINE2":"2 47606  53.0547 347.5032 0001714  55.8082 304.3070 15.06395365101040","REF_FRAME":"TEME","OBJECT_TYPE":"PAYLOAD","EPHEMERIS_TYPE":"0","LAUNCH_DATE":"2021-02-04","MEAN_ANOMALY":"304.3070","MEAN_ELEMENT_THEORY":"SGP4","MEAN_MOTION_DOT":"0.00000206","FILE":"3672080","ARG_OF_PERICENTER":"55.8082","CLASSIFICATION_TYPE":"U","TIME_SYSTEM":"UTC","PERIOD":"95.592","RCS_SIZE":"LARGE","SITE":"AFETR","EPOCH":"2022-11-28T04:02:47.906592","ECCENTRICITY":"0.00017140","RA_OF_ASC_NODE":"347.5032","APOAPSIS":"548.415","GP_ID":"218998210","MEAN_MOTION_DDOT":"0.0000000000000","CENTER_NAME":"EARTH","DECAY_DATE":null,"ELEMENT_SET_NO":"999","MEAN_MOTION":"15.06395365","COUNTRY_CODE":"US","OBJECT_NAME":"STARLINK-2024"},{"OBJECT_NAME":"STARLINK-2025","COUNTRY_CODE":"US","ELEMENT_SET_NO":"999","MEAN_MOTION":"15.06394407","DECAY_DATE":null,"MEAN_MOTION_DDOT":"0.0000000000000","GP_ID":"218989593","CENTER_NAME":"EARTH","SITE":"AFETR","EPOCH":"2022-11-27T17:57:43.084512","ECCENTRICITY":"0.00018190","RA_OF_ASC_NODE":"349.4006","APOAPSIS":"548.490","PERIOD":"95.592","TIME_SYSTEM":"UTC","RCS_SIZE":"LARGE","FILE":"3671921","ARG_OF_PERICENTER":"42.6925","CLASSIFICATION_TYPE":"U","MEAN_ELEMENT_THEORY":"SGP4","MEAN_ANOMALY":"317.4205","MEAN_MOTION_DOT":"0.00000147","OBJECT_TYPE":"PAYLOAD","EPHEMERIS_TYPE":"0","LAUNCH_DATE":"2021-02-04","TLE_LINE2":"2 47607  53.0557 349.4006 0001819  42.6925 317.4205 15.06394407100376","REF_FRAME":"TEME","INCLINATION":"53.0557","PERIAPSIS":"545.971","REV_AT_EPOCH":"10037","TLE_LINE1":"1 47607U 21009BM  22331.74841533  .00000147  00000-0  28803-4 0  9999","NORAD_CAT_ID":"47607","SEMIMAJOR_AXIS":"6925.366","OBJECT_ID":"2021-009BM","BSTAR":"0.00002880300000"},{"TIME_SYSTEM":"UTC","PERIOD":"95.592","RCS_SIZE":"LARGE","EPOCH":"2022-11-28T15:03:36.677376","SITE":"AFETR","RA_OF_ASC_NODE":"45.4439","APOAPSIS":"548.289","ECCENTRICITY":"0.00015850","GP_ID":"219006389","MEAN_MOTION_DDOT":"0.0000000000000","CENTER_NAME":"EARTH","DECAY_DATE":null,"MEAN_MOTION":"15.06407184","ELEMENT_SET_NO":"999","COUNTRY_CODE":"US","OBJECT_NAME":"STARLINK-1528","SEMIMAJOR_AXIS":"6925.327","BSTAR":"-0.00030851000000","OBJECT_ID":"2021-012A","REV_AT_EPOCH":"9904","PERIAPSIS":"546.094","INCLINATION":"53.0579","NORAD_CAT_ID":"47620","TLE_LINE1":"1 47620U 21012A   22332.62750784 -.00004875  00000-0 -30851-3 0  9992","TLE_LINE2":"2 47620  53.0579  45.4439 0001585  79.6891 280.4277 15.06407184 99046","REF_FRAME":"TEME","OBJECT_TYPE":"PAYLOAD","LAUNCH_DATE":"2021-02-16","EPHEMERIS_TYPE":"0","MEAN_MOTION_DOT":"-0.00004875","MEAN_ELEMENT_THEORY":"SGP4","MEAN_ANOMALY":"280.4277","ARG_OF_PERICENTER":"79.6891","FILE":"3672519","CLASSIFICATION_TYPE":"U"},{"DECAY_DATE":null,"ELEMENT_SET_NO":"999","MEAN_MOTION":"15.06400752","COUNTRY_CODE":"US","OBJECT_NAME":"STARLINK-1609","PERIOD":"95.592","TIME_SYSTEM":"UTC","RCS_SIZE":"LARGE","SITE":"AFETR","EPOCH":"2022-11-28T10:06:22.278816","ECCENTRICITY":"0.00015850","APOAPSIS":"548.309","RA_OF_ASC_NODE":"46.3584","MEAN_MOTION_DDOT":"0.0000000000000","GP_ID":"219001047","CENTER_NAME":"EARTH","MEAN_ANOMALY":"285.6546","MEAN_ELEMENT_THEORY":"SGP4","MEAN_MOTION_DOT":"0.00001211","FILE":"3672247","ARG_OF_PERICENTER":"74.4618","CLASSIFICATION_TYPE":"U","SEMIMAJOR_AXIS":"6925.346","OBJECT_ID":"2021-012B","BSTAR":"0.00010018000000","REV_AT_EPOCH":"9901","PERIAPSIS":"546.114","INCLINATION":"53.0555","TLE_LINE1":"1 47621U 21012B   22332.42109119  .00001211  00000-0  10018-3 0  9993","NORAD_CAT_ID":"47621","REF_FRAME":"TEME","TLE_LINE2":"2 47621  53.0555  46.3584 0001585  74.4618 285.6546 15.06400752 99019","OBJECT_TYPE":"PAYLOAD","EPHEMERIS_TYPE":"0","LAUNCH_DATE":"2021-02-16"}];
